[{"OBJECT_NAME":"STARLINK-4298","OBJECT_ID":"2022-083AX","EPOCH":"2026-03-09T11:00:50.823648","MEAN_MOTION":15.0884642,"ECCENTRICITY":0.00013268,"INCLINATION":53.2176,"RA_OF_ASC_NODE":140.1471,"ARG_OF_PERICENTER":82.7033,"MEAN_ANOMALY":277.411,"EPHEMERIS_TYPE":0,"CLASSIFICATION_TYPE":"U","NORAD_CAT_ID":53177,"ELEMENT_SET_NO":999,"REV_AT_EPOCH":20166,"BSTAR":8.1551596e-5,"MEAN_MOTION_DOT":1.01e-5,"MEAN_MOTION_DDOT":0},{"OBJECT_NAME":"PSLV DEB","OBJECT_ID":"2001-049CG","EPOCH":"2026-03-09T17:57:10.653408","MEAN_MOTION":15.10779615,"ECCENTRICITY":0.00259315,"INCLINATION":97.9011,"RA_OF_ASC_NODE":146.9612,"ARG_OF_PERICENTER":307.1678,"MEAN_ANOMALY":170.9563,"EPHEMERIS_TYPE":0,"CLASSIFICATION_TYPE":"U","NORAD_CAT_ID":27136,"ELEMENT_SET_NO":999,"REV_AT_EPOCH":32989,"BSTAR":0.00047952924,"MEAN_MOTION_DOT":7.956e-5,"MEAN_MOTION_DDOT":0}]
